OBJECT C                
1 57582U 23117C   24323.16952970  .00009406  00000+0  43283-3 0  9995
2 57582  97.4710  33.4265 0010974 115.3087 244.9286 15.20490477 70546
